OBJECT_NAME,OBJECT_ID,EPOCH,MEAN_MOTION,ECCENTRICITY,INCLINATION,RA_OF_ASC_NODE,ARG_OF_PERICENTER,MEAN_ANOMALY,EPHEMERIS_TYPE,CLASSIFICATION_TYPE,NORAD_CAT_ID,ELEMENT_SET_NO,REV_AT_EPOCH,BSTAR,MEAN_MOTION_DOT,MEAN_MOTION_DDOT
ASTRA 3B,2010-021A,2026-06-16T16:32:50.727264,1.00270687,.0004172,1.4685,83.5630,4.6610,88.4263,0,U,36581,999,5886,0,.134E-5,0
COMSATBW-2,2010-021B,2026-06-16T21:59:09.220416,1.00272496,.000256,0.0452,65.3799,36.3508,146.4243,0,U,36582,999,5895,0,.85E-6,0
BEIDOU-2 G3,2010-024A,2026-06-16T18:31:28.990848,1.00271066,.0007734,4.5143,61.5169,351.2754,209.8157,0,U,36590,999,5876,0,-.141E-5,0
BADR-5,2010-025A,2026-06-16T18:17:30.331104,1.00271735,.0003818,0.0555,130.1243,63.3810,16.3551,0,U,36592,999,5321,0,.151E-5,0
COMS 1,2010-032A,2026-06-16T22:48:42.214176,0.99162509,.0011488,4.8049,75.3571,11.7446,234.6783,0,U,36744,999,5108,0,.55E-6,0
ARABSAT-5A,2010-032B,2026-06-16T18:17:37.819392,1.00276315,.000579,0.0513,34.3975,73.4322,102.1027,0,U,36745,999,5864,0,.151E-5,0
ECHOSTAR 15,2010-034A,2026-06-17T02:55:41.638080,1.00271330,.0001951,0.0379,67.2237,353.8646,129.4280,0,U,36792,999,5832,0,-.4E-7,0
BEIDOU-2 IGSO-1,2010-036A,2026-06-15T22:07:28.195104,1.00272283,.00592987,54.3019,162.9711,225.1772,315.5729,0,U,36828,999,5808,0,-.73E-6,0
NILESAT 201,2010-037A,2026-06-16T16:24:14.051808,1.00272364,.0004493,0.0281,231.8801,244.3839,27.7714,0,U,36830,999,5837,0,-.6E-6,0
RASCOM-QAF 1R,2010-037B,2026-06-16T16:27:06.278112,1.00272621,.0006764,0.0254,74.2587,6.5796,73.7889,0,U,36831,999,5830,0,.16E-6,0
AEHF-1 (USA 214),2010-039A,2026-06-15T23:35:20.284224,1.00273839,.00038332,8.2165,68.0662,7.6167,212.3496,0,U,36868,999,5364,0,.142E-5,0
XM-5,2010-053A,2026-06-16T15:53:17.021184,1.00269006,.0002962,0.0649,272.9850,289.0563,186.0076,0,U,37185,999,5747,0,-.25E-6,0
BSAT-3B,2010-056B,2026-06-16T22:40:11.419104,1.00269343,.0001638,0.0625,241.1383,305.0077,168.9526,0,U,37207,999,5209,0,-.353E-5,0
BEIDOU-2 G4,2010-057A,2026-06-17T00:19:35.190336,1.00270672,.0005307,3.6462,68.9422,196.5483,164.6792,0,U,37210,999,5729,0,-.118E-5,0
SKYTERRA 1,2010-061A,2026-06-16T15:57:16.636896,1.00271804,.0002216,5.1244,50.8592,7.5918,344.4588,0,U,37218,999,5718,0,-.123E-5,0
HYLAS 1,2010-065A,2026-06-16T22:00:44.910144,1.00272203,.0000845,5.6433,73.0236,319.8309,216.3082,0,U,37237,999,688,0,.83E-6,0
INTELSAT 17 (IS-17),2010-065B,2026-06-16T18:27:36.860832,1.00271594,.00026,0.0062,297.9502,157.3015,152.6794,0,U,37238,999,5324,0,-.4E-7,0
BEIDOU-2 IGSO-2,2010-068A,2026-06-15T20:29:59.130240,1.00282881,.0055907,47.5513,271.8488,212.6889,194.9404,0,U,37256,999,5678,0,-.214E-5,0
EUTELSAT KA-SAT 9A,2010-069A,2026-06-16T16:28:43.622400,1.00272118,.0003658,0.0609,11.4792,122.0065,27.6583,0,U,37258,999,4400,0,.59E-6,0
HISPASAT 30W-5,2010-070A,2026-06-16T18:00:19.325088,1.00271912,.0005093,0.0501,113.8283,349.9658,41.3030,0,U,37264,999,5318,0,-.218E-5,0
KOREASAT 6,2010-070B,2026-06-16T17:11:46.480416,1.00270758,.0002052,0.0164,19.3728,74.9710,228.4621,0,U,37265,999,5676,0,-.114E-5,0
BEIDOU-2 IGSO-3,2011-013A,2026-06-14T14:04:06.536928,1.00267759,.00343713,62.4034,40.1764,184.2029,357.3112,0,U,37384,999,5563,0,-.189E-5,0
INTELSAT 28 (IS-28),2011-016A,2026-06-16T17:59:49.371936,1.00269732,.000361,1.8056,82.6255,6.9956,53.6278,0,U,37392,999,5328,0,-.229E-5,0
YAHSAT 1A,2011-016B,2026-06-16T22:20:56.441184,1.00269745,.0002787,0.0185,13.7759,84.4326,194.7138,0,U,37393,999,4240,0,0,0
SBIRS GEO-1 (USA 230),2011-019A,2026-06-16T22:20:21.450048,1.00272482,.0002067,4.5353,53.1261,25.0801,213.8769,0,U,37481,999,5539,0,.94E-6,0
TELSTAR 14R,2011-021A,2026-06-15T23:01:16.355712,1.00271112,.00021606,0.0163,16.9583,38.4474,131.1409,0,U,37602,999,5582,0,-.279E-5,0
GSAT-8,2011-022A,2026-06-16T22:23:57.908832,1.00271222,.0002232,2.1309,81.8310,199.7115,14.7281,0,U,37605,999,5321,0,.8E-6,0
ST-2,2011-022B,2026-06-16T18:33:53.964864,1.00271943,.0001603,0.0191,35.3748,61.5550,174.5934,0,U,37606,999,5527,0,-.214E-5,0
ZHONGXING-10,2011-026A,2026-06-16T17:46:17.199840,1.00268098,.0003198,1.0453,84.1979,4.8991,167.9454,0,U,37677,999,5499,0,-.19E-5,0
SES-3,2011-035A,2026-06-16T14:14:13.687008,1.00271266,.0002231,1.3258,83.0884,353.5977,298.7323,0,U,37748,999,5458,0,-.104E-5,0
KAZSAT-2,2011-035B,2026-06-16T18:33:31.500864,1.00277558,.0001004,0.0334,230.8542,275.5325,123.5554,0,U,37749,999,5339,0,-.202E-5,0
BEIDOU-2 IGSO-4,2011-038A,2026-06-16T16:27:02.962080,1.00285273,.015952,54.6000,165.6770,231.4431,207.9860,0,U,37763,999,5464,0,.19E-6,0
